SCD 1                   
1 22490U 93009B   26164.87128389  .00000363  00000+0  48347-4 0  9994
2 22490  24.9681 228.0525 0042177 102.7647  57.9732 14.46117773760637
TECHSAT 1B (GO-32)      
1 25397U 98043D   26164.83321139  .00000056  00000+0  44485-4 0  9998
2 25397  99.0066 157.5072 0000881 170.2303 189.8892 14.24427851450853
SCD 2                   
1 25504U 98060A   26164.15409937  .00000382  00000+0  55754-4 0  9998
2 25504  24.9947  97.0290 0016973  80.8885 302.2821 14.45524442459745
DLR-TUBSAT              
1 25757U 99029B   26164.78002924  .00000080  00000+0  31600-4 0  9997
2 25757  98.6695 160.1720 0014266   5.5842 354.5509 14.52426113432752
TERRA                   
1 25994U 99068A   26164.88860163  .00000364  00000+0  83151-4 0  9994
2 25994  97.9457 214.5655 0001324 201.8095 331.1346 14.61100761409129
MAROC-TUBSAT            
1 27004U 01056D   26164.77949615 -.00000023  00000+0  27197-4 0  9997
2 27004  99.8080 341.5748 0020220 149.7815 223.0291 13.70262360225729
AQUA                    
1 27424U 02022A   26164.90537926  .00000715  00000+0  15200-3 0  9998
2 27424  98.4276 134.1226 0001228  53.6532   2.8336 14.62153733282798
SHIYAN-1 (SY-1)         
1 28220U 04012A   26164.79100419  .00013350  00000+0  41212-3 0  9995
2 28220  97.8697 242.6384 0005899  44.4190 315.7523 15.33681149210576
AURA                    
1 28376U 04026A   26164.83641478  .00000729  00000+0  15727-3 0  9990
2 28376  98.3416 121.2620 0001247  73.3251 286.8086 14.61324668165728
IRS-P5 (CARTOSAT-1)     
1 28649U 05017A   26164.78997125  .00001246  00000+0  13124-3 0  9995
2 28649  97.5308 188.0085 0002677  84.1638 275.9886 14.91041304143319
SINAH 1                 
1 28893U 05043D   26164.84221306  .00000292  00000+0  64982-4 0  9992
2 28893  98.2855 299.1446 0013171 288.3118  71.6651 14.64155695100034
RESURS-DK 1             
1 29228U 06021A   26164.86239478  .00002599  00000+0  15203-3 0  9996
2 29228  69.9339 348.1592 0006801 294.2665  65.7790 15.13205333102075
ARIRANG-2 (KOMPSAT-2)   
1 29268U 06031A   26164.82126447  .00000341  00000+0  72491-4 0  9994
2 29268  97.8305 349.4313 0015952  84.2543  42.9892 14.64658258 60982
LAPAN-TUBSAT            
1 29709U 07001A   26164.88744510  .00000825  00000+0  10104-3 0  9994
2 29709  98.1338 164.0365 0011638 190.2058 169.8922 14.85947798 50666
HAIYANG-1B              
1 31113U 07010A   26164.85855642  .00000077  00000+0  45107-4 0  9993
2 31113  98.3494 146.8328 0012807 206.6224 153.4303 14.31026137   164
COSMO-SKYMED 1          
1 31598U 07023A   26164.85997110  .00002583  00000+0  22920-3 0  9992
2 31598  97.8841 356.6882 0001060  95.6941 264.4401 14.97084981 29298
TERRASAR-X              
1 31698U 07026A   26164.30549450  .00000550  00000+0  29393-4 0  9990
2 31698  97.4448 172.0669 0001630  86.5072 273.6349 15.19146801 52630
WORLDVIEW-1 (WV-1)      
1 32060U 07041A   26164.87836990  .00006377  00000+0  26434-3 0  9996
2 32060  97.3873 284.6695 0002573  30.9145 329.2244 15.24233784 42370
YAOGAN-3                
1 32289U 07055A   26164.83845023  .00002045  00000+0  21372-3 0  9991
2 32289  97.8158 194.7494 0002013  88.7910 271.3539 14.90769585  5370
COSMO-SKYMED 2          
1 32376U 07059A   26164.85302809  .00000369  00000+0  52973-4 0  9993
2 32376  97.8885 348.4994 0001385  86.3437 273.7934 14.82152572  1516
RADARSAT-2              
1 32382U 07061A   26164.88912199 -.00000264  00000+0 -85361-4 0  9998
2 32382  98.5776 171.8683 0001307  82.6661 277.4670 14.29980323965482
CARTOSAT-2A             
1 32783U 08021A   26164.86726698  .00000337  00000+0  52102-4 0  9991
2 32783  97.7641 213.6890 0013024 118.4330 241.8196 14.79232990978313
HUANJING 1A (HJ-1A)     
1 33320U 08041A   26164.86236272  .00001553  00000+0  19218-3 0  9996
2 33320  97.6675 150.8289 0019726 145.0550 215.1964 14.83980991957912
HUANJING 1B (HJ-1B)     
1 33321U 08041B   26164.89738657  .00000252  00000+0  36744-4 0  9993
2 33321  97.6513 154.0442 0035720 191.8582 168.1795 14.83310150957921
GEOEYE 1                
1 33331U 08042A   26164.80457216  .00000412  00000+0  86320-4 0  9998
2 33331  98.1236 238.7786 0005496  77.7263 282.4555 14.64722861949656
THEOS                   
1 33396U 08049A   26164.86880589 -.00000126  00000+0 -39414-4 0  9991
2 33396  98.5578 222.2601 0001251  80.9650 279.1668 14.20131619917497
COSMO-SKYMED 3          
1 33412U 08054A   26164.88951127  .00004273  00000+0  28969-3 0  9992
2 33412  97.8288  23.4062 0014405 279.2536  80.7062 15.06933330956446
YAOGAN-4                
1 33446U 08061A   26164.79394572  .00000945  00000+0  12215-3 0  9991
2 33446  97.9308  98.3293 0015753  82.4273 277.8730 14.83194294945163
GOSAT (IBUKI)           
1 33492U 09002A   26164.86561382  .00001065  00000+0  19636-3 0  9999
2 33492  98.0888 275.9881 0001449  81.2358 278.9011 14.67539561930972
DEIMOS-1                
1 35681U 09041A   26164.79501895  .00000393  00000+0  65090-4 0  9998
2 35681  97.7393 322.1700 0001414 133.8642 226.2685 14.75233682906383
DUBAISAT-1              
1 35682U 09041B   26164.83312957  .00000684  00000+0  10881-3 0  9993
2 35682  98.0048 298.1278 0011730  83.2485 277.0058 14.75118385904605
