OBJECT_NAME,OBJECT_ID,EPOCH,MEAN_MOTION,ECCENTRICITY,INCLINATION,RA_OF_ASC_NODE,ARG_OF_PERICENTER,MEAN_ANOMALY,EPHEMERIS_TYPE,CLASSIFICATION_TYPE,NORAD_CAT_ID,ELEMENT_SET_NO,REV_AT_EPOCH,BSTAR,MEAN_MOTION_DOT,MEAN_MOTION_DDOT
SCD 1,1993-009B,2026-06-13T20:54:38.928096,14.46117773,.0042177,24.9681,228.0525,102.7647,57.9732,0,U,22490,999,76063,.48347E-4,.363E-5,0
TECHSAT 1B (GO-32),1998-043D,2026-06-13T19:59:49.464096,14.24427851,.0000881,99.0066,157.5072,170.2303,189.8892,0,U,25397,999,45085,.44485E-4,.56E-6,0
SCD 2,1998-060A,2026-06-13T03:41:54.185568,14.45524442,.00169739,24.9947,97.0290,80.8885,302.2821,0,U,25504,999,45974,.55754164E-4,.382E-5,0
DLR-TUBSAT,1999-029B,2026-06-13T18:43:14.526336,14.52426113,.0014266,98.6695,160.1720,5.5842,354.5509,0,U,25757,999,43275,.316E-4,.8E-6,0
TERRA,1999-068A,2026-06-13T21:19:35.180832,14.61100761,.0001324,97.9457,214.5655,201.8095,331.1346,0,U,25994,999,40912,.83151E-4,.364E-5,0
MAROC-TUBSAT,2001-056D,2026-06-13T18:42:28.467360,13.70262360,.002022,99.8080,341.5748,149.7815,223.0291,0,U,27004,999,22572,.27197E-4,-.23E-6,0
AQUA,2002-022A,2026-06-13T21:43:44.768064,14.62153733,.0001228,98.4276,134.1226,53.6532,2.8336,0,U,27424,999,28279,.152E-3,.715E-5,0
SHIYAN-1 (SY-1),2004-012A,2026-06-13T18:59:02.762016,15.33681149,.0005899,97.8697,242.6384,44.4190,315.7523,0,U,28220,999,21057,.41212E-3,.1335E-3,0
AURA,2004-026A,2026-06-13T20:04:26.236992,14.61324668,.0001247,98.3416,121.2620,73.3251,286.8086,0,U,28376,999,16572,.15727E-3,.729E-5,0
IRS-P5 (CARTOSAT-1),2005-017A,2026-06-13T18:57:33.516000,14.91041304,.0002677,97.5308,188.0085,84.1638,275.9886,0,U,28649,999,14331,.13124E-3,.1246E-4,0
SINAH 1,2005-043D,2026-06-13T20:12:47.208384,14.64155695,.0013171,98.2855,299.1446,288.3118,71.6651,0,U,28893,999,10003,.64982E-4,.292E-5,0
RESURS-DK 1,2006-021A,2026-06-13T20:41:50.908992,15.13205333,.0006801,69.9339,348.1592,294.2665,65.7790,0,U,29228,999,10207,.15203E-3,.2599E-4,0
ARIRANG-2 (KOMPSAT-2),2006-031A,2026-06-13T19:42:37.250208,14.64658258,.0015952,97.8305,349.4313,84.2543,42.9892,0,U,29268,999,6098,.72491E-4,.341E-5,0
LAPAN-TUBSAT,2007-001A,2026-06-13T21:17:55.256640,14.85947798,.0011638,98.1338,164.0365,190.2058,169.8922,0,U,29709,999,5066,.10104E-3,.825E-5,0
HAIYANG-1B,2007-010A,2026-06-13T20:36:19.274688,14.31026137,.0012807,98.3494,146.8328,206.6224,153.4303,0,U,31113,999,16,.45107E-4,.77E-6,0
COSMO-SKYMED 1,2007-023A,2026-06-13T20:38:21.503040,14.97084981,.000106,97.8841,356.6882,95.6941,264.4401,0,U,31598,999,2929,.2292E-3,.2583E-4,0
TERRASAR-X,2007-026A,2026-06-13T07:19:54.724800,15.19146801,.00016306,97.4448,172.0669,86.5072,273.6349,0,U,31698,999,5263,.29393025E-4,.55E-5,0
WORLDVIEW-1 (WV-1),2007-041A,2026-06-13T21:04:51.159360,15.24233784,.0002573,97.3873,284.6695,30.9145,329.2244,0,U,32060,999,4237,.26434E-3,.6377E-4,0
YAOGAN-3,2007-055A,2026-06-13T20:07:22.099872,14.90769585,.0002013,97.8158,194.7494,88.7910,271.3539,0,U,32289,999,537,.21372E-3,.2045E-4,0
COSMO-SKYMED 2,2007-059A,2026-06-13T20:28:21.626976,14.82152572,.0001385,97.8885,348.4994,86.3437,273.7934,0,U,32376,999,151,.52973E-4,.369E-5,0
RADARSAT-2,2007-061A,2026-06-13T21:20:20.139936,14.29980323,.0001307,98.5776,171.8683,82.6661,277.4670,0,U,32382,999,96548,-.85361E-4,-.264E-5,0
CARTOSAT-2A,2008-021A,2026-06-13T20:48:51.867072,14.79232990,.0013024,97.7641,213.6890,118.4330,241.8196,0,U,32783,999,97831,.52102E-4,.337E-5,0
HUANJING 1A (HJ-1A),2008-041A,2026-06-13T20:41:48.139008,14.83980991,.0019726,97.6675,150.8289,145.0550,215.1964,0,U,33320,999,95791,.19218E-3,.1553E-4,0
HUANJING 1B (HJ-1B),2008-041B,2026-06-13T21:32:14.199648,14.83310150,.003572,97.6513,154.0442,191.8582,168.1795,0,U,33321,999,95792,.36744E-4,.252E-5,0
GEOEYE 1,2008-042A,2026-06-13T19:18:35.034624,14.64722861,.0005496,98.1236,238.7786,77.7263,282.4555,0,U,33331,999,94965,.8632E-4,.412E-5,0
THEOS,2008-049A,2026-06-13T20:51:04.828896,14.20131619,.0001251,98.5578,222.2601,80.9650,279.1668,0,U,33396,999,91749,-.39414E-4,-.126E-5,0
COSMO-SKYMED 3,2008-054A,2026-06-13T21:20:53.773728,15.06933330,.0014405,97.8288,23.4062,279.2536,80.7062,0,U,33412,999,95644,.28969E-3,.4273E-4,0
YAOGAN-4,2008-061A,2026-06-13T19:03:16.910208,14.83194294,.0015753,97.9308,98.3293,82.4273,277.8730,0,U,33446,999,94516,.12215E-3,.945E-5,0
GOSAT (IBUKI),2009-002A,2026-06-13T20:46:29.034048,14.67539561,.0001449,98.0888,275.9881,81.2358,278.9011,0,U,33492,999,93097,.19636E-3,.1065E-4,0
DEIMOS-1,2009-041A,2026-06-13T19:04:49.637280,14.75233682,.0001414,97.7393,322.1700,133.8642,226.2685,0,U,35681,999,90638,.6509E-4,.393E-5,0
DUBAISAT-1,2009-041B,2026-06-13T19:59:42.394848,14.75118385,.001173,98.0048,298.1278,83.2485,277.0058,0,U,35682,999,90460,.10881E-3,.684E-5,0
